{
  "norad_id": 60597,
  "name": "STARLINK-32162",
  "history": [
    {
      "epoch": "2026-03-28T17:48:54.114336Z",
      "apogee_km": 475.9242250123334,
      "perigee_km": 474.6394831139514,
      "latitude_deg": -7.949211626532377e-06,
      "longitude_deg": 125.48064445599763,
      "height_km": 476.33263176929006,
      "semi_major_axis_km": 6853.418854063142,
      "eccentricity": 9.373e-05,
      "inclination_deg": 53.1601,
      "raan_deg": 218.8645,
      "arg_perigee_deg": 103.7074,
      "mean_anomaly_deg": 256.4031,
      "mean_motion_rev_day": 15.30177633
    }
  ]
}