{"fetched_at":"2026-03-29T16:36:15Z","count":15609,"tles":[{"name":"STARLINK-32162","line1":"1 60597U 24150Q   26087.74229299 -.00000476  00000+0 -39572-5 0  9995","line2":"2 60597  53.1601 218.8645 0000937 103.7074 256.4031 15.30177633 90950","category":"Starlink"}]}